COSMOS 2456 [GLONASS-M] 
1 36111U 09070A   26062.42573193  .00000019  00000+0  00000+0 0  9996
2 36111  64.9483  74.5788 0006300 305.6154 173.6630  2.13103384126178
COSMOS 2457 [GLONASS-M] 
1 36112U 09070B   26063.51655917  .00000009  00000+0  00000+0 0  9992
2 36112  64.9344  74.3876 0002178 196.4363 168.0672  2.13100837126206
COSMOS 2460 [GLONASS-M] 
1 36402U 10007C   26063.07006766 -.00000051  00000+0  00000+0 0  9997
2 36402  65.4801 318.0258 0001792  14.3302   8.4003  2.13106010124499
NAVSTAR 65 (USA 213)    
1 36585U 10022A   26063.82760834  .00000002  00000+0  00000+0 0  9997
2 36585  54.2888 212.7639 0127348  65.8806 347.4855  2.00557291115501
BEIDOU-2 IGSO-1         
1 36828U 10036A   26063.53912355 -.00000138  00000+0  00000+0 0  9998
2 36828  54.2925 163.9091 0054014 218.9469  78.5819  1.00252363 57044
BEIDOU-2 G4             
1 37210U 10057A   26063.82581160 -.00000121  00000+0  00000+0 0  9997
2 37210   3.3879  69.5480 0009020 210.9407 339.3787  1.00272165 56242
BEIDOU-2 IGSO-2         
1 37256U 10068A   26063.55016868 -.00000178  00000+0  00000+0 0  9999
2 37256  47.7317 273.1244 0047330 213.1251 341.1802  1.00258965 55745
BEIDOU-2 IGSO-3         
1 37384U 11013A   26058.90884667 -.00000154  00000+0  00000+0 0  9999
2 37384  62.2642  41.1818 0035029 190.8154 358.7681  1.00294022 54567
GSAT-8                  
1 37605U 11022A   26063.19072456  .00000073  00000+0  00000+0 0  9996
2 37605   1.8598  83.1608 0007372 214.9335 347.5527  1.00272189 52163
BEIDOU-2 IGSO-4         
1 37763U 11038A   26063.65270079 -.00000106  00000+0  00000+0 0  9998
2 37763  54.5895 166.6175 0154496 230.9812  94.2035  1.00265629 53596
GSAT0101 (GALILEO-PFM)  
1 37846U 11060A   26053.46432651 -.00000082  00000+0  00000+0 0  9992
2 37846  57.0318 344.8758 0003975 357.0591   2.9533  1.70475478 89166
GSAT0102 (GALILEO-FM2)  
1 37847U 11060B   26060.06318653 -.00000106  00000+0  00000+0 0  9999
2 37847  57.0301 344.6971 0005422 341.2092 154.1953  1.70475778 89286
COSMOS 2476 [GLONASS-M] 
1 37867U 11064A   26063.36294003  .00000014  00000+0  00000+0 0  9990
2 37867  65.2092  76.4094 0025181 241.3302 145.2927  2.13103598111532
COSMOS 2477 [GLONASS-M] 
1 37868U 11064B   26062.25639741  .00000024  00000+0  00000+0 0  9991
2 37868  65.2151  76.5253 0022241 242.8811 195.4983  2.13102695111505
COSMOS 2475 [GLONASS-M] 
1 37869U 11064C   26063.83752270  .00000010  00000+0  00000+0 0  9995
2 37869  65.2230  76.4922 0028035 254.5042 272.4281  2.13101500111544
BEIDOU-2 IGSO-5         
1 37948U 11073A   26063.54783174 -.00000153  00000+0  00000+0 0  9997
2 37948  47.8676 272.8369 0108588 221.1171 320.7210  1.00272598 52087
LUCH-5A                 
1 37951U 11074B   26062.83352980 -.00000057  00000+0  00000+0 0  9993
2 37951   8.4858  75.3546 0004005 243.8626 309.5287  1.00275356 51997
